TIANMU-1 20             
1 58661U 23208B   26168.91223687  .00006431  00000+0  20563-3 0  9994
2 58661  97.4452 285.8515 0005965 330.8819  29.2089 15.32773638137534
TIANMU-1 21             
1 58662U 23208C   26168.89948880  .00007785  00000+0  23095-3 0  9997
2 58662  97.4513 288.5223 0005920 320.7968  39.2846 15.35087755137671
TIANMU-1 22             
1 58663U 23208D   26168.92236310  .00006231  00000+0  21021-3 0  9992
2 58663  97.4506 285.1610 0003113   1.2284 358.8964 15.31067020137446
TIANMU-1 15             
1 58700U 24004A   26168.95050551  .00004447  00000+0  17041-3 0  9997
2 58700  97.4667 355.1406 0006616 359.7836   0.3399 15.27030089135890
TIANMU-1 16             
1 58701U 24004B   26168.93987985  .00004523  00000+0  17473-3 0  9990
2 58701  97.4614 354.3660 0005749   5.4575 354.6726 15.26755084135894
TIANMU-1 17             
1 58702U 24004C   26168.92533383  .00004541  00000+0  17542-3 0  9996
2 58702  97.4641 354.8366 0005446  12.0424 348.0944 15.26754084135881
TIANMU-1 18             
1 58703U 24004D   26168.96712903  .00004380  00000+0  16803-3 0  9998
2 58703  97.4659 355.1344 0003968  12.7135 347.4203 15.27012063135891
INSAT-3DS               
1 58990U 24033A   26168.91308838 -.00000161  00000+0  00000+0 0  9993
2 58990   0.0445 109.0868 0001040 325.9647 241.9201  1.00271290 47078
METEOR-M2 4             
1 59051U 24039A   26168.95719581  .00000012  00000+0  24841-4 0  9991
2 59051  98.7010 128.2455 0007336 158.8228 201.3255 14.22429630119379
GOES 19                 
1 60133U 24119A   26168.88188420 -.00000254  00000+0  00000+0 0  9992
2 60133   0.0119 105.1045 0000362  74.7035 328.6096  1.00270995  6978
MTG-S1                  
1 64723U 25143A   26168.89609565 -.00000037  00000+0  00000+0 0  9997
2 64723   0.6023 339.1581 0000788  17.4636 228.6383  1.00270520  3423
METOP-SGA1              
1 65159U 25172A   26167.15332899  .00000049  00000+0  42000-4 0  9997
2 65159  98.6644 226.8998 0000902  93.8213 266.3067 14.21509720 43644
FENGYUN 3H              
1 65815U 25219A   26168.81618521  .00000037  00000+0  37845-4 0  9999
2 65815  98.6768 109.5731 0001591  76.2688 283.8666 14.19920549 37474
